#aV2015 10  7  0  0  0.00000000     288 DD+AD WGS84 FIT  NGA
## 1865 259200.00000000   300.00000000 57302 0.0000000000000
+   31     1  2  3  4  5  6  7  8  9 11 12 13 14 15 16 17 18
+         19 20 21 22 23 24 25 26 27 28 29 30 31 32  0  0  0
+          0  0  0  0  0  0  0  0  0  0  0  0  0  0  0  0  0
+          0  0  0  0  0  0  0  0  0  0  0  0  0  0  0  0  0
+          0  0  0  0  0  0  0  0  0  0  0  0  0  0  0  0  0
++         2  2  2  2  2  2  2  2  2  2  2  2  2  2  2  2  2
++         2  2  2  2  2  2  2  2  2  2  2  2  2  2  0  0  0
++         0  0  0  0  0  0  0  0  0  0  0  0  0  0  0  0  0
++         0  0  0  0  0  0  0  0  0  0  0  0  0  0  0  0  0
++         0  0  0  0  0  0  0  0  0  0  0  0  0  0  0  0  0
%c cc cc ccc ccc cccc cccc cccc cccc ccccc ccccc ccccc ccccc
%c cc cc ccc ccc cccc cccc cccc cccc ccccc ccccc ccccc ccccc
%f  0.0000000  0.000000000  0.00000000000  0.000000000000000
%f  0.0000000  0.000000000  0.00000000000  0.000000000000000
%i    0    0    0    0      0      0      0      0         0
%i    0    0    0    0      0      0      0      0         0
/*      NGA, ST. LOUIS,MO.                                  
/*   EPHEMERIS COMPUTED FROM  1 DAYS OF DATA                
/*   EPOCHA SMOOTHER                                       
/* CCCCCCCCCCCCCCCCCCCCCCCCCCCCCCCCCCCCCCCCCCCCCCCCCCCCCCCCC
*  2015 10  7 22 50  0.00000000
P  1 -13059.976611  22592.050131  -4394.611236      1.935235                    
V  1  -5601.800292   2707.907987  31274.252902      0.007430                    
P  2  19415.876007  -8682.256864 -15245.632659    591.913322                    
V  2  -9173.723426  18303.188591 -21996.552433      0.014075                    
P  3  -9718.400304  13504.190706 -20700.393870     20.737880                    
V  3 -26040.741883  -3789.976918   9727.815886     -0.009098                    
P  4 -17545.225379  19164.170262   4442.587411    -29.460240                    
V  4    563.813859  -7117.366758  30778.826875     -0.047091                    
P  5  25407.867782  -2814.391362   7508.982428   -187.465459                    
V  5   9234.953929   3880.811756 -29358.480229      0.039711                    
P  6  15530.914628   3795.086889 -21209.020665     72.499664                    
V  6 -15412.564849  22084.001810  -7343.205317      0.071005                    
P  7   -875.380257  20259.886171  17066.371395    483.359058                    
V  7 -14648.990315  15928.908249 -20187.635866     -0.007580                    
P  8  -9305.757744  14262.571505  20428.482898     -7.947188                    
V  8 -11354.940526 -23231.180280  11058.155362     -0.013216                    
P  9   7295.486801  25047.863069  -4952.382025     -4.477993                    
V  9  -5195.048618  -4572.292314 -30831.102139      0.032244                    
P 11 -10171.925156  24086.627262   3846.211132   -608.811581                    
V 11  -3197.182027  -6761.166349  29728.661752     -0.022958                    
P 12  12603.636376 -11509.229505 -20392.486564    334.861147                    
V 12  25185.235353   4909.496986  13064.483873      0.033268                    
P 13  14407.306204  -3786.846052  21855.428326   -154.990163                    
V 13   8193.720385  26810.117256   -855.213478     -0.028784                    
P 14 -14372.297641 -19868.794989 -10139.921040     29.540643                    
V 14  -2164.536252 -13216.207061  28109.522231     -0.024919                    
P 15   8545.815103 -15470.399355  19633.393052   -275.639239                    
V 15  12793.748037  21939.869565  11991.911490     -0.020082                    
P 16 -25662.126792    333.536580   7470.957467    -78.787421                    
V 16  -9062.185853  -3132.401404 -30297.911727      0.038443                    
P 17  15005.567161  19252.782290 -10417.734386   -190.245197                    
V 17   2980.213005  13418.316468  28058.821623     -0.012773                    
P 18 -10816.008139 -15501.925088  19268.261820    440.813470                    
V 18  23490.373486    547.037655  13716.338622      0.035637                    
P 19  -1344.068178  23105.335499  12436.196750   -521.210731                    
V 19  -7391.361908 -14701.660691  26473.365552     -0.005297                    
P 20  13097.244972 -13528.157282  18605.742236    361.343518                    
V 20  23965.904585   2680.403303 -14719.709346      0.030040                    
P 21  -3748.767460 -18878.505736  18885.410796   -485.138516                    
V 21  14586.546462 -17526.738654 -15534.284643     -0.026468                    
P 22 -22454.987270  -9976.421791  10541.742933    398.653027                    
V 22  13298.464423  -2123.801780  26748.435399      0.037243                    
P 23  -3347.313383  20763.095161 -15789.600532   -137.557240                    
V 23 -10514.159860 -17856.468620 -21459.353144     -0.021426                    
P 24  14450.584843 -22136.104002  -1423.720068     -5.930592                    
V 24   3670.824033    422.519006  31590.935202     -0.006457                    
P 25  -1990.979372 -15048.893295 -21908.782591    -49.259498                    
V 25  27361.315968   2850.802655  -4304.196517     -0.053714                    
P 26 -25959.781252  -4832.536857  -2905.507710    -76.558621                    
V 26   3964.873949  -2378.190595 -31466.513541     -0.127003                    
P 27 -15512.403808   1455.954790  21499.018905     25.707922                    
V 27 -10657.204941 -25158.083291  -5858.099857      0.030469                    
P 28  19116.570151  12856.333021  13915.180716    472.828310                    
V 28 -16491.106418  -1791.414895  25390.573012      0.026519                    
P 29  -4182.391453 -25222.272044  -7256.407585    638.376373                    
V 29   5309.225036   7844.773752 -30236.186476      0.019536                    
P 30   8592.840406  13230.374382  21357.893437     37.373589                    
V 30 -18061.251708  20282.197027  -5378.762847      0.062738                    
P 31 -15939.311546  -2847.133996 -20990.375265    300.063732                    
V 31  16197.555552 -21411.629082  -9006.554018     -0.014227                    
P 32 -20598.550674   6944.150017 -14934.773881    -21.086818                    
V 32 -18268.593325  -6276.026256  22892.064261      0.112849                    
EOF
